$$SOE
2461295.500000000, A.D. 2026-Sep-12 00:00:00.0000, 2.830547547186122E+08, 2.223018358579519E+08, 8.574988097607225E+06,
2461302.500000000, A.D. 2026-Sep-19 00:00:00.0000, 2.774795418264689E+08, 2.327899125111615E+08, 6.182906115881443E+06,
2461309.500000000, A.D. 2026-Sep-26 00:00:00.0000, 2.716209442767135E+08, 2.430402814028079E+08, 3.784502408349469E+06,
2461316.500000000, A.D. 2026-Oct-03 00:00:00.0000, 2.654900499771348E+08, 2.530470419642490E+08, 1.382297680730417E+06,
2461323.500000000, A.D. 2026-Oct-10 00:00:00.0000, 2.590979082993685E+08, 2.628048361038128E+08, -1.021274281411469E+06,
2461330.500000000, A.D. 2026-Oct-17 00:00:00.0000, 2.524555061627403E+08, 2.723088260449435E+08, -3.423866805243492E+06,
2461337.500000000, A.D. 2026-Oct-24 00:00:00.0000, 2.455737465525479E+08, 2.815546717668342E+08, -5.823220125067323E+06,
2461344.500000000, A.D. 2026-Oct-31 00:00:00.0000, 2.384634294558473E+08, 2.905385081676342E+08, -8.217160839259580E+06,
2461351.500000000, A.D. 2026-Nov-07 00:00:00.0000, 2.311352354295594E+08, 2.992569221858875E+08, -1.060360109855980E+07,
2461358.500000000, A.D. 2026-Nov-14 00:00:00.0000, 2.235997118705541E+08, 3.077069309049571E+08, -1.298053751244995E+07,
2461365.500000000, A.D. 2026-Nov-21 00:00:00.0000, 2.158672600358770E+08, 3.158859614371347E+08, -1.534604958861555E+07,
2461372.500000000, A.D. 2026-Nov-28 00:00:00.0000, 2.079481216702718E+08, 3.237918296854979E+08, -1.769829789224096E+07,
2461379.500000000, A.D. 2026-Dec-05 00:00:00.0000, 1.998523687293032E+08, 3.314227174279811E+08, -2.003552234186560E+07,
2461386.500000000, A.D. 2026-Dec-12 00:00:00.0000, 1.915898962405484E+08, 3.387771509131256E+08, -2.235604043276422E+07,
2461393.500000000, A.D. 2026-Dec-19 00:00:00.0000, 1.831704162939322E+08, 3.458539810334778E+08, -2.465824524165583E+07,
2461400.500000000, A.D. 2026-Dec-26 00:00:00.0000, 1.746034529014811E+08, 3.526523642546997E+08, -2.694060329563168E+07,
2461407.500000000, A.D. 2027-Jan-02 00:00:00.0000, 1.658983378893805E+08, 3.591717441425670E+08, -2.920165236876932E+07,
2461414.500000000, A.D. 2027-Jan-09 00:00:00.0000, 1.570642078302677E+08, 3.654118335299607E+08, -3.143999923550957E+07,
2461421.500000000, A.D. 2027-Jan-16 00:00:00.0000, 1.481100019465391E+08, 3.713725973456030E+08, -3.365431740088007E+07,
2461428.500000000, A.D. 2027-Jan-23 00:00:00.0000, 1.390444609312918E+08, 3.770542360705200E+08, -3.584334483039603E+07,
2461435.500000000, A.D. 2027-Jan-30 00:00:00.0000, 1.298761267810024E+08, 3.824571697741698E+08, -3.800588171421294E+07,
2461442.500000000, A.D. 2027-Feb-06 00:00:00.0000, 1.206133439775063E+08, 3.875820230656481E+08, -4.014078828862786E+07,
2461449.500000000, A.D. 2027-Feb-13 00:00:00.0000, 1.112642614796000E+08, 3.924296121705011E+08, -4.224698258375446E+07,
2461456.500000000, A.D. 2027-Feb-20 00:00:00.0000, 1.018368330867391E+08, 3.970009333248667E+08, -4.432343795369847E+07,
2461463.500000000, A.D. 2027-Feb-27 00:00:00.0000, 9.233881749875432E+07, 4.012971492543092E+08, -4.636918078630267E+07,
2461470.500000000, A.D. 2027-Mar-06 00:00:00.0000, 8.277778102695791E+07, 4.053195756454587E+08, -4.838328851924059E+07,
2461477.500000000, A.D. 2027-Mar-13 00:00:00.0000, 7.316110130231516E+07, 4.090696696393214E+08, -5.036488765419336E+07,
2461484.500000000, A.D. 2027-Mar-20 00:00:00.0000, 6.349597079967958E+07, 4.125490194867653E+08, -5.231315173773216E+07,
2461491.500000000, A.D. 2027-Mar-27 00:00:00.0000, 5.378940033260468E+07, 4.157593347927369E+08, -5.422729937550326E+07,
2461498.500000000, A.D. 2027-Apr-03 00:00:00.0000, 4.404822267898960E+07, 4.187024372769061E+08, -5.610659230485411E+07,
2461505.500000000, A.D. 2027-Apr-10 00:00:00.0000, 3.427909636045619E+07, 4.213802520487822E+08, -5.795033353160022E+07,
2461512.500000000, A.D. 2027-Apr-17 00:00:00.0000, 2.448850956301016E+07, 4.237947993577079E+08, -5.975786553546932E+07,
2461519.500000000, A.D. 2027-Apr-24 00:00:00.0000, 1.468278424711742E+07, 4.259481867302666E+08, -6.152856855735219E+07,
2461526.500000000, A.D. 2027-May-01 00:00:00.0000, 4.868080718783570E+06, 4.278426014980029E+08, -6.326185899390620E+07,
2461533.500000000, A.D. 2027-May-08 00:00:00.0000, -4.949597056097158E+06, 4.294803044401462E+08, -6.495718786675625E+07,
2461540.500000000, A.D. 2027-May-15 00:00:00.0000, -1.476439691211849E+07, 4.308636254719587E+08, -6.661403915128784E+07,
2461547.500000000, A.D. 2027-May-22 00:00:00.0000, -2.457061630132075E+07, 4.319949587613503E+08, -6.823192803218652E+07,
2461554.500000000, A.D. 2027-May-29 00:00:00.0000, -3.436269913031917E+07, 4.328767557805681E+08, -6.981039951155087E+07,
2461561.500000000, A.D. 2027-Jun-05 00:00:00.0000, -4.413523074942579E+07, 4.335115194060162E+08, -7.134902719460697E+07,
2461568.500000000, A.D. 2027-Jun-12 00:00:00.0000, -5.388293311313506E+07, 4.339017994782431E+08, -7.284741203298378E+07,
2461575.500000000, A.D. 2027-Jun-19 00:00:00.0000, -6.360066045412815E+07, 4.340501888660490E+08, -7.430518106997062E+07,
2461582.500000000, A.D. 2027-Jun-26 00:00:00.0000, -7.328339520162283E+07, 4.339593197539210E+08, -7.572198623315361E+07,
2461589.500000000, A.D. 2027-Jul-03 00:00:00.0000, -8.292624402043331E+07, 4.336318601429980E+08, -7.709750318438375E+07,
2461596.500000000, A.D. 2027-Jul-10 00:00:00.0000, -9.252443394056371E+07, 4.330705105568937E+08, -7.843143022812137E+07,
2461603.500000000, A.D. 2027-Jul-17 00:00:00.0000, -1.020733085460615E+08, 4.322780008962763E+08, -7.972348728268082E+07,
2461610.500000000, A.D. 2027-Jul-24 00:00:00.0000, -1.115683240708513E+08, 4.312570873619990E+08, -8.097341493136163E+07,
2461617.500000000, A.D. 2027-Jul-31 00:00:00.0000, -1.210050449943943E+08, 4.300105496651674E+08, -8.218097356916101E+07,
2461624.500000000, A.D. 2027-Aug-07 00:00:00.0000, -1.303791393429223E+08, 4.285411896606705E+08, -8.334594253025259E+07,
2461631.500000000, A.D. 2027-Aug-14 00:00:00.0000, -1.396863760013791E+08, 4.268518311384104E+08, -8.446811900456965E+07,
2461638.500000000, A.D. 2027-Aug-21 00:00:00.0000, -1.489226234198101E+08, 4.249453173949932E+08, -8.554731707335076E+07,
2461645.500000000, A.D. 2027-Aug-28 00:00:00.0000, -1.580838462865644E+08, 4.228245077769920E+08, -8.658336707848424E+07,
2461652.500000000, A.D. 2027-Sep-04 00:00:00.0000, -1.671661013516828E+08, 4.204922756901994E+08, -8.757611501298542E+07,
2461659.500000000, A.D. 2027-Sep-11 00:00:00.0000, -1.761655337947894E+08, 4.179515074047385E+08, -8.852542185813662E+07,
2461666.500000000, A.D. 2027-Sep-18 00:00:00.0000, -1.850783740032390E+08, 4.152051009954373E+08, -8.943116293114641E+07,
2461673.500000000, A.D. 2027-Sep-25 00:00:00.0000, -1.939009345311787E+08, 4.122559653299438E+08, -9.029322726915796E+07,
2461680.500000000, A.D. 2027-Oct-02 00:00:00.0000, -2.026296071640656E+08, 4.091070191231844E+08, -9.111151705290027E+07,
2461687.500000000, A.D. 2027-Oct-09 00:00:00.0000, -2.112608600656049E+08, 4.057611900455196E+08, -9.188594707119170E+07,
2461694.500000000, A.D. 2027-Oct-16 00:00:00.0000, -2.197912349431449E+08, 4.022214138222120E+08, -9.261644423541342E+07,
2461701.500000000, A.D. 2027-Oct-23 00:00:00.0000, -2.282173439707001E+08, 3.984906333115007E+08, -9.330294716711232E+07,
2461708.500000000, A.D. 2027-Oct-30 00:00:00.0000, -2.365358660940657E+08, 3.945717981650933E+08, -9.394540584216507E+07,
2461715.500000000, A.D. 2027-Nov-06 00:00:00.0000, -2.447435438809940E+08, 3.904678661938669E+08, -9.454378109197700E+07,
2461722.500000000, A.D. 2027-Nov-13 00:00:00.0000, -2.528371829002565E+08, 3.861818043582905E+08, -9.509804394881770E+07,
2461729.500000000, A.D. 2027-Nov-20 00:00:00.0000, -2.608136507246466E+08, 3.817165871914195E+08, -9.560817527828541E+07,
2461736.500000000, A.D. 2027-Nov-27 00:00:00.0000, -2.686698739398379E+08, 3.770751956123510E+08, -9.607416560340762E+07,
2461743.500000000, A.D. 2027-Dec-04 00:00:00.0000, -2.764028351828744E+08, 3.722606170407015E+08, -9.649601485999641E+07,
2461750.500000000, A.D. 2027-Dec-11 00:00:00.0000, -2.840095707592814E+08, 3.672758458450363E+08, -9.687373211106752E+07,
2461757.500000000, A.D. 2027-Dec-18 00:00:00.0000, -2.914871685620593E+08, 3.621238837822867E+08, -9.720733527228016E+07,
2461764.500000000, A.D. 2027-Dec-25 00:00:00.0000, -2.988327661392298E+08, 3.568077404223600E+08, -9.749685086162394E+07,
2461771.500000000, A.D. 2028-Jan-01 00:00:00.0000, -3.060435488673164E+08, 3.513304335693782E+08, -9.774231377520786E+07,
$$EOE